COSMOS 2503             
1 40420U 15009A   26068.69626972  .00002817  00000+0  19590-3 0  9998
2 40420  97.8437 123.7175 0015321 225.7450 134.2520 15.06275973603958
STARLINK-3717           
1 52096U 22029J   26068.44604542  .00000010  00000+0  18701-4 0  9999
2 52096  53.2167  80.2136 0001438  91.7214 268.3943 15.08837508220743
